[{"OBJECT_NAME":"STARLINK-36489","OBJECT_ID":"2026-002Z","EPOCH":"2026-03-05T03:46:41.112192","MEAN_MOTION":15.27548696,"ECCENTRICITY":0.00016837,"INCLINATION":42.9997,"RA_OF_ASC_NODE":351.0401,"ARG_OF_PERICENTER":257.3186,"MEAN_ANOMALY":102.7477,"EPHEMERIS_TYPE":0,"CLASSIFICATION_TYPE":"U","NORAD_CAT_ID":67328,"ELEMENT_SET_NO":999,"REV_AT_EPOCH":1054,"BSTAR":0.00067762559,"MEAN_MOTION_DOT":0.00018414,"MEAN_MOTION_DDOT":0},{"OBJECT_NAME":"STARLINK-36496","OBJECT_ID":"2026-002AA","EPOCH":"2026-03-05T03:24:28.320480","MEAN_MOTION":15.27602268,"ECCENTRICITY":0.00017283,"INCLINATION":43.0007,"RA_OF_ASC_NODE":350.9208,"ARG_OF_PERICENTER":277.8809,"MEAN_ANOMALY":82.1847,"EPHEMERIS_TYPE":0,"CLASSIFICATION_TYPE":"U","NORAD_CAT_ID":67329,"ELEMENT_SET_NO":999,"REV_AT_EPOCH":1036,"BSTAR":0.0012767736,"MEAN_MOTION_DOT":0.00035063,"MEAN_MOTION_DDOT":0},{"OBJECT_NAME":"STARLINK-36483","OBJECT_ID":"2026-002AB","EPOCH":"2026-03-05T03:55:56.140608","MEAN_MOTION":15.27602547,"ECCENTRICITY":0.00020307,"INCLINATION":43.0015,"RA_OF_ASC_NODE":351.0919,"ARG_OF_PERICENTER":278.4662,"MEAN_ANOMALY":81.5959,"EPHEMERIS_TYPE":0,"CLASSIFICATION_TYPE":"U","NORAD_CAT_ID":67330,"ELEMENT_SET_NO":999,"REV_AT_EPOCH":1054,"BSTAR":0.00164565,"MEAN_MOTION_DOT":0.00045334,"MEAN_MOTION_DDOT":0},{"OBJECT_NAME":"STARLINK-36494","OBJECT_ID":"2026-002AC","EPOCH":"2026-03-05T03:30:00.781632","MEAN_MOTION":15.27592893,"ECCENTRICITY":0.00047681,"INCLINATION":43,"RA_OF_ASC_NODE":350.9486,"ARG_OF_PERICENTER":238.4649,"MEAN_ANOMALY":121.5738,"EPHEMERIS_TYPE":0,"CLASSIFICATION_TYPE":"U","NORAD_CAT_ID":67331,"ELEMENT_SET_NO":999,"REV_AT_EPOCH":1054,"BSTAR":0.00098312071,"MEAN_MOTION_DOT":0.00026907,"MEAN_MOTION_DDOT":0},{"OBJECT_NAME":"STARLINK-36492","OBJECT_ID":"2026-002AD","EPOCH":"2026-03-05T04:07:02.423712","MEAN_MOTION":15.27567859,"ECCENTRICITY":0.00017615,"INCLINATION":43.0035,"RA_OF_ASC_NODE":351.154,"ARG_OF_PERICENTER":260.0418,"MEAN_ANOMALY":100.0235,"EPHEMERIS_TYPE":0,"CLASSIFICATION_TYPE":"U","NORAD_CAT_ID":67332,"ELEMENT_SET_NO":999,"REV_AT_EPOCH":1054,"BSTAR":0.0012882406,"MEAN_MOTION_DOT":0.00035345,"MEAN_MOTION_DDOT":0},{"OBJECT_NAME":"STARLINK-36427","OBJECT_ID":"2026-002AE","EPOCH":"2026-03-05T05:07:53.215968","MEAN_MOTION":15.27559505,"ECCENTRICITY":0.00016904,"INCLINATION":43.0009,"RA_OF_ASC_NODE":350.5903,"ARG_OF_PERICENTER":255.4256,"MEAN_ANOMALY":104.6409,"EPHEMERIS_TYPE":0,"CLASSIFICATION_TYPE":"U","NORAD_CAT_ID":67333,"ELEMENT_SET_NO":999,"REV_AT_EPOCH":1045,"BSTAR":0.001083004,"MEAN_MOTION_DOT":0.00029641,"MEAN_MOTION_DDOT":0},{"OBJECT_NAME":"STARLINK-35343","OBJECT_ID":"2026-003A","EPOCH":"2026-03-05T05:53:11.499936","MEAN_MOTION":15.2759485,"ECCENTRICITY":8.952e-5,"INCLINATION":42.9986,"RA_OF_ASC_NODE":252.2118,"ARG_OF_PERICENTER":246.8653,"MEAN_ANOMALY":113.2104,"EPHEMERIS_TYPE":0,"CLASSIFICATION_TYPE":"U","NORAD_CAT_ID":67334,"ELEMENT_SET_NO":999,"REV_AT_EPOCH":814,"BSTAR":0.00091853671,"MEAN_MOTION_DOT":0.00025112,"MEAN_MOTION_DDOT":0},{"OBJECT_NAME":"STARLINK-36486","OBJECT_ID":"2026-003B","EPOCH":"2026-03-04T21:30:56.567520","MEAN_MOTION":15.27608954,"ECCENTRICITY":0.00019808,"INCLINATION":43.0022,"RA_OF_ASC_NODE":253.8893,"ARG_OF_PERICENTER":271.9488,"MEAN_ANOMALY":88.1136,"EPHEMERIS_TYPE":0,"CLASSIFICATION_TYPE":"U","NORAD_CAT_ID":67335,"ELEMENT_SET_NO":999,"REV_AT_EPOCH":809,"BSTAR":0.00095000946,"MEAN_MOTION_DOT":0.00025996,"MEAN_MOTION_DDOT":0},{"OBJECT_NAME":"STARLINK-36480","OBJECT_ID":"2026-003C","EPOCH":"2026-03-04T22:13:30.367488","MEAN_MOTION":15.27590845,"ECCENTRICITY":0.00018639,"INCLINATION":42.9988,"RA_OF_ASC_NODE":254.1189,"ARG_OF_PERICENTER":272.2403,"MEAN_ANOMALY":87.8236,"EPHEMERIS_TYPE":0,"CLASSIFICATION_TYPE":"U","NORAD_CAT_ID":67336,"ELEMENT_SET_NO":999,"REV_AT_EPOCH":809,"BSTAR":0.0012469137,"MEAN_MOTION_DOT":0.00034222,"MEAN_MOTION_DDOT":0},{"OBJECT_NAME":"STARLINK-36410","OBJECT_ID":"2026-003D","EPOCH":"2026-03-05T04:56:03.076224","MEAN_MOTION":15.27559484,"ECCENTRICITY":0.00013064,"INCLINATION":43.0002,"RA_OF_ASC_NODE":252.7739,"ARG_OF_PERICENTER":262.383,"MEAN_ANOMALY":97.6873,"EPHEMERIS_TYPE":0,"CLASSIFICATION_TYPE":"U","NORAD_CAT_ID":67337,"ELEMENT_SET_NO":999,"REV_AT_EPOCH":813,"BSTAR":0.0009263821,"MEAN_MOTION_DOT":0.00025301,"MEAN_MOTION_DDOT":0},{"OBJECT_NAME":"STARLINK-36413","OBJECT_ID":"2026-003E","EPOCH":"2026-03-04T13:03:22.713696","MEAN_MOTION":15.27617647,"ECCENTRICITY":0.0004574,"INCLINATION":42.999,"RA_OF_ASC_NODE":256.4102,"ARG_OF_PERICENTER":296.327,"MEAN_ANOMALY":63.7111,"EPHEMERIS_TYPE":0,"CLASSIFICATION_TYPE":"U","NORAD_CAT_ID":67338,"ELEMENT_SET_NO":999,"REV_AT_EPOCH":803,"BSTAR":0.0015547,"MEAN_MOTION_DOT":0.00042828,"MEAN_MOTION_DDOT":0},{"OBJECT_NAME":"STARLINK-36451","OBJECT_ID":"2026-003F","EPOCH":"2026-03-04T22:07:57.522720","MEAN_MOTION":15.27573253,"ECCENTRICITY":0.00018301,"INCLINATION":42.9996,"RA_OF_ASC_NODE":254.089,"ARG_OF_PERICENTER":277.5158,"MEAN_ANOMALY":82.5485,"EPHEMERIS_TYPE":0,"CLASSIFICATION_TYPE":"U","NORAD_CAT_ID":67339,"ELEMENT_SET_NO":999,"REV_AT_EPOCH":809,"BSTAR":0.00098239314,"MEAN_MOTION_DOT":0.00026865,"MEAN_MOTION_DDOT":0},{"OBJECT_NAME":"STARLINK-36339","OBJECT_ID":"2026-003G","EPOCH":"2026-03-04T21:56:51.236160","MEAN_MOTION":15.27597051,"ECCENTRICITY":0.00026434,"INCLINATION":43.0042,"RA_OF_ASC_NODE":254.0321,"ARG_OF_PERICENTER":273.5537,"MEAN_ANOMALY":86.5012,"EPHEMERIS_TYPE":0,"CLASSIFICATION_TYPE":"U","NORAD_CAT_ID":67340,"ELEMENT_SET_NO":999,"REV_AT_EPOCH":809,"BSTAR":0.001042665,"MEAN_MOTION_DOT":0.00028557,"MEAN_MOTION_DDOT":0},{"OBJECT_NAME":"STARLINK-36453","OBJECT_ID":"2026-003H","EPOCH":"2026-03-05T05:42:05.658336","MEAN_MOTION":15.27587232,"ECCENTRICITY":0.00011173,"INCLINATION":43.0004,"RA_OF_ASC_NODE":252.1528,"ARG_OF_PERICENTER":284.8394,"MEAN_ANOMALY":75.2334,"EPHEMERIS_TYPE":0,"CLASSIFICATION_TYPE":"U","NORAD_CAT_ID":67341,"ELEMENT_SET_NO":999,"REV_AT_EPOCH":814,"BSTAR":0.001228493,"MEAN_MOTION_DOT":0.00033705,"MEAN_MOTION_DDOT":0},{"OBJECT_NAME":"STARLINK-36432","OBJECT_ID":"2026-003J","EPOCH":"2026-03-04T21:19:50.409696","MEAN_MOTION":15.27607774,"ECCENTRICITY":0.00023882,"INCLINATION":43.0027,"RA_OF_ASC_NODE":253.8267,"ARG_OF_PERICENTER":266.696,"MEAN_ANOMALY":93.3619,"EPHEMERIS_TYPE":0,"CLASSIFICATION_TYPE":"U","NORAD_CAT_ID":67342,"ELEMENT_SET_NO":999,"REV_AT_EPOCH":809,"BSTAR":0.0010504627,"MEAN_MOTION_DOT":0.00028783,"MEAN_MOTION_DDOT":0},{"OBJECT_NAME":"STARLINK-36458","OBJECT_ID":"2026-003K","EPOCH":"2026-03-05T05:32:50.691264","MEAN_MOTION":15.27578037,"ECCENTRICITY":7.996e-5,"INCLINATION":42.996,"RA_OF_ASC_NODE":252.1026,"ARG_OF_PERICENTER":272.8774,"MEAN_ANOMALY":87.1986,"EPHEMERIS_TYPE":0,"CLASSIFICATION_TYPE":"U","NORAD_CAT_ID":67343,"ELEMENT_SET_NO":999,"REV_AT_EPOCH":814,"BSTAR":0.00094113554,"MEAN_MOTION_DOT":0.00025725,"MEAN_MOTION_DDOT":0}]
