STARLINK-36489          
1 67328U 26002Z   26064.15742028  .00018414  00000+0  67763-3 0  9992
2 67328  42.9997 351.0401 0001683 257.3186 102.7477 15.27548696 10543
STARLINK-36496          
1 67329U 26002AA  26064.14199445  .00035063  00000+0  12768-2 0  9994
2 67329  43.0007 350.9208 0001728 277.8809  82.1847 15.27602268 10368
STARLINK-36483          
1 67330U 26002AB  26064.16384422  .00045334  00000+0  16456-2 0  9999
2 67330  43.0015 351.0919 0002030 278.4662  81.5959 15.27602547 10548
STARLINK-36494          
1 67331U 26002AC  26064.14584238  .00026907  00000+0  98312-3 0  9992
2 67331  43.0000 350.9486 0004768 238.4649 121.5738 15.27592893 10543
STARLINK-36492          
1 67332U 26002AD  26064.17155583  .00035345  00000+0  12882-2 0  9996
2 67332  43.0035 351.1540 0001761 260.0418 100.0235 15.27567859 10549
STARLINK-36427          
1 67333U 26002AE  26064.21381037  .00029641  00000+0  10830-2 0  9990
2 67333  43.0009 350.5903 0001690 255.4256 104.6409 15.27559505 10458
STARLINK-35343          
1 67334U 26003A   26064.24527199  .00025112  00000+0  91854-3 0  9991
2 67334  42.9986 252.2118 0000895 246.8653 113.2104 15.27594850  8141
STARLINK-36486          
1 67335U 26003B   26063.89648805  .00025996  00000+0  95001-3 0  9998
2 67335  43.0022 253.8893 0001980 271.9488  88.1136 15.27608954  8093
STARLINK-36480          
1 67336U 26003C   26063.92604592  .00034222  00000+0  12469-2 0  9996
2 67336  42.9988 254.1189 0001863 272.2403  87.8236 15.27590845  8092
STARLINK-36410          
1 67337U 26003D   26064.20559116  .00025301  00000+0  92638-3 0  9995
2 67337  43.0002 252.7739 0001306 262.3830  97.6873 15.27559484  8138
STARLINK-36413          
1 67338U 26003E   26063.54401289  .00042828  00000+0  15547-2 0  9995
2 67338  42.9990 256.4102 0004574 296.3270  63.7111 15.27617647  8037
STARLINK-36451          
1 67339U 26003F   26063.92219355  .00026865  00000+0  98239-3 0  9992
2 67339  42.9996 254.0890 0001830 277.5158  82.5485 15.27573253  8093
STARLINK-36339          
1 67340U 26003G   26063.91448190  .00028557  00000+0  10427-2 0  9996
2 67340  43.0042 254.0321 0002643 273.5537  86.5012 15.27597051  8090
STARLINK-36453          
1 67341U 26003H   26064.23756549  .00033705  00000+0  12285-2 0  9998
2 67341  43.0004 252.1528 0001117 284.8394  75.2334 15.27587232  8146
STARLINK-36432          
1 67342U 26003J   26063.88877789  .00028783  00000+0  10505-2 0  9992
2 67342  43.0027 253.8267 0002388 266.6960  93.3619 15.27607774  8093
STARLINK-36458          
1 67343U 26003K   26064.23114226  .00025725  00000+0  94114-3 0  9995
2 67343  42.9960 252.1026 0000799 272.8774  87.1986 15.27578037  8142
